OBJECT_NAME,OBJECT_ID,EPOCH,MEAN_MOTION,ECCENTRICITY,INCLINATION,RA_OF_ASC_NODE,ARG_OF_PERICENTER,MEAN_ANOMALY,EPHEMERIS_TYPE,CLASSIFICATION_TYPE,NORAD_CAT_ID,ELEMENT_SET_NO,REV_AT_EPOCH,BSTAR,MEAN_MOTION_DOT,MEAN_MOTION_DDOT
SL-8 R/B,1985-006B,2026-07-12T00:16:17.641920,14.37844189,.00192877,74.0451,32.3807,275.9962,236.2769,0,U,15483,999,17189,.50756482E-4,.127E-5,0
SL-12 R/B(2),1985-042D,2026-07-11T23:42:20.043072,14.22010577,.00372354,71.1064,185.1181,290.8828,99.3792,0,U,15772,999,13206,.382575E-5,-.39E-6,0
SL-14 R/B,1985-069B,2026-07-12T05:01:45.982272,14.86533917,.00198684,82.5265,267.8343,136.6030,223.6755,0,U,15945,999,19133,.23230056E-4,.231E-5,0
SL-16 R/B,1985-097B,2026-07-12T02:48:20.054592,14.16612184,.00055139,71.0009,238.5939,57.8246,332.0642,0,U,16182,999,10485,-.885059E-5,-.66E-6,0
SL-14 R/B,1986-006B,2026-07-11T21:11:09.339072,14.86966798,.00752225,82.5281,142.8742,219.9848,139.5817,0,U,16496,999,16766,.2454881E-4,.257E-5,0
COSMOS 1743,1986-034A,2026-07-12T06:55:55.123680,15.69378339,.00052946,82.5282,301.9968,185.6738,174.4465,0,U,16719,999,19972,.31356643E-3,.36827E-3,0
SL-14 R/B,1986-046B,2026-07-12T08:12:42.933312,14.85689242,.00232752,82.4837,322.4060,172.3191,187.8387,0,U,16792,999,14491,.25246163E-4,.244E-5,0
SL-14 R/B,1986-055B,2026-07-11T20:57:21.373056,14.85738979,.00173283,82.5201,9.9200,282.3058,198.0232,0,U,16882,999,13780,.25261565E-4,.244E-5,0
AJISAI (EGS),1986-061A,2026-07-12T06:47:30.443136,12.44516682,.00110934,50.0099,70.2265,244.4712,236.4006,0,U,16908,999,48351,.18980205E-4,-.95E-6,0
SL-14 R/B,1987-024B,2026-07-12T07:55:33.733056,14.86230453,.00175753,82.5295,335.6165,203.5075,156.5341,0,U,17567,999,10664,.26496259E-4,.258E-5,0
COSMOS 1833,1987-027A,2026-07-11T19:31:48.204768,14.13065553,.00240083,70.9211,65.1077,14.1554,346.0235,0,U,17589,999,2785,.88850383E-4,.118E-5,0
SL-16 R/B,1987-027B,2026-07-11T20:23:57.679296,14.17173183,.00071372,71.0030,14.8558,285.3527,74.6808,0,U,17590,999,3293,-.3498533E-4,-.119E-5,0
SL-14 R/B,1987-038B,2026-07-11T10:42:44.957952,14.85459955,.00207215,82.5009,180.2209,113.7273,246.6120,0,U,17912,999,9760,.26588962E-4,.255E-5,0
COSMOS 1844,1987-041A,2026-07-12T05:03:06.861312,14.14579535,.00315111,70.8997,131.5251,199.5239,160.4678,0,U,17973,999,2119,.10936204E-3,.163E-5,0
SL-14 R/B,1987-055B,2026-07-12T01:47:49.736544,14.85725929,.00196291,82.4974,231.7673,325.9754,34.0202,0,U,18153,999,8840,.21136916E-4,.208E-5,0
COSMOS 1867,1987-060A,2026-07-12T06:47:43.171584,14.31518306,.00170818,65.0120,317.7752,282.0206,77.8964,0,U,18187,999,3777,.110157E-4,-.71E-6,0
SL-14 R/B,1988-001B,2026-07-12T03:30:16.572096,14.85625592,.00179027,82.5124,78.2920,181.8420,178.2733,0,U,18749,999,6050,.21870024E-4,.214E-5,0
COSMOS 1933,1988-020A,2026-07-11T21:00:58.926528,15.18877042,.00057467,82.5138,127.9851,116.0732,244.1094,0,U,18958,999,6907,.98853042E-4,.2092E-4,0
SL-3 R/B,1988-032B,2026-07-12T05:51:08.046432,15.21017974,.00262397,97.5268,176.2638,155.6276,204.6207,0,U,19046,999,7103,.10752767E-3,.2334E-4,0
SL-16 R/B,1988-039B,2026-07-11T08:38:07.831104,14.19631645,.00208005,71.0136,167.0445,155.6640,204.5472,0,U,19120,999,97593,-.64357511E-4,-.184E-5,0
COSMOS 1953,1988-050A,2026-07-11T14:34:43.385376,15.30305195,.0011791,82.5062,33.4006,51.5057,308.7239,0,U,19210,999,5672,.15134349E-3,.4478E-4,0
SL-8 R/B,1988-053B,2026-07-11T15:02:21.510240,14.38977093,.0019605,74.0461,244.0075,30.7363,83.3668,0,U,19257,999,99442,.47256002E-4,.12E-5,0
COSMOS 1975,1988-093A,2026-07-11T21:13:38.162208,15.29637025,.0012557,82.5192,352.8513,92.6562,267.6116,0,U,19573,999,3838,.13202E-3,.3833E-4,0
SL-14 R/B,1988-093B,2026-07-12T06:03:57.108384,14.85758970,.002027,82.5317,285.1141,350.2743,39.0026,0,U,19574,999,1951,.20544451E-4,.203E-5,0
SL-16 R/B,1988-102B,2026-07-12T03:37:31.051776,14.16167403,.00144817,70.9982,249.6127,190.3323,169.7505,0,U,19650,999,94451,-.92585149E-4,-.231E-5,0
INTERCOSMOS 24,1989-080A,2026-07-12T00:48:02.825856,12.59690954,.1187371,82.6047,23.4731,4.2840,356.7394,0,U,20261,999,68245,.67833599E-4,.246E-5,0
SL-14 R/B,1989-080C,2026-07-12T02:56:12.007680,12.50578093,.12285938,82.5937,93.2868,260.3236,85.7278,0,U,20262,999,67570,.1595713E-4,.55E-6,0
DELTA 1 R/B,1989-089B,2026-07-11T23:31:46.560864,14.50746629,.00706486,97.0634,20.5709,89.9074,271.0220,0,U,20323,999,91375,.48051871E-4,.16E-5,0
ARIANE 40 R/B,1990-005H,2026-07-12T03:07:01.624224,14.39939873,.00100614,98.2947,249.9687,183.0738,177.0390,0,U,20443,999,91071,.47927971E-4,.109E-5,0
DELTA 2 R/B(1),1990-008B,2026-07-11T23:24:56.494368,15.73093935,.0060492,35.6004,69.3143,345.6004,14.3014,0,U,20453,999,94560,.49289605E-3,.79208E-3,0
